IRIDIUM 150             
1 43257U 18030J   24313.86003223  .00000788  00000+0  27419-3 0  9998
2 43257  86.4014 175.1262 0002239  76.1956 283.9489 14.34219013346284
IRIDIUM 143             
1 43258U 18030K   24313.07354889  .00000934  00000+0  32627-3 0  9999
2 43258  86.4016 175.5240 0002227  70.2613 289.8822 14.34224161346117
IRIDIUM 161             
1 43478U 18047C   24313.04608863  .00001465  00000+0  42942-3 0  9993
2 43478  86.4482 333.4331 0002371  90.9169 269.2304 14.43283305340597
IRIDIUM 152             
1 43479U 18047D   24313.60442719  .00000908  00000+0  31725-3 0  9990
2 43479  86.3958 333.0591 0002307  96.3771 263.7688 14.34216667338562
IRIDIUM 147             
1 43480U 18047E   24312.56423645  .00000716  00000+0  24854-3 0  9995
2 43480  86.3958 333.4888 0002088 101.5779 258.5651 14.34220438338406
IRIDIUM 110             
1 43481U 18047F   24312.64034310  .00001036  00000+0  36262-3 0  9994
2 43481  86.3961 333.5337 0002453 104.2843 255.8626 14.34224719338407
IRIDIUM 162             
1 43482U 18047G   24313.59442117  .00001489  00000+0  43661-3 0  9991
2 43482  86.4480 333.1019 0002310  97.4047 262.7416 14.43289719340665
IRIDIUM 160             
1 43569U 18061A   24311.95825927  .00000303  00000+0  10130-3 0  9994
2 43569  86.3920 302.1801 0001993  94.4992 265.6431 14.34221115329208
